[{"OBJECT_NAME":"STARLINK-3796","OBJECT_ID":"2022-045AT","EPOCH":"2026-03-09T13:27:54.929088","MEAN_MOTION":15.08830421,"ECCENTRICITY":0.0001294,"INCLINATION":53.2176,"RA_OF_ASC_NODE":189.6983,"ARG_OF_PERICENTER":97.297,"MEAN_ANOMALY":262.8169,"EPHEMERIS_TYPE":0,"CLASSIFICATION_TYPE":"U","NORAD_CAT_ID":52372,"ELEMENT_SET_NO":999,"REV_AT_EPOCH":21589,"BSTAR":-6.5789e-6,"MEAN_MOTION_DOT":-3.93e-6,"MEAN_MOTION_DDOT":0},{"OBJECT_NAME":"CZ-6A R\/B","OBJECT_ID":"2022-031C","EPOCH":"2026-03-09T19:50:55.360896","MEAN_MOTION":15.07476837,"ECCENTRICITY":0.00174842,"INCLINATION":97.8104,"RA_OF_ASC_NODE":273.2347,"ARG_OF_PERICENTER":181.6412,"MEAN_ANOMALY":178.4761,"EPHEMERIS_TYPE":0,"CLASSIFICATION_TYPE":"U","NORAD_CAT_ID":52152,"ELEMENT_SET_NO":999,"REV_AT_EPOCH":21633,"BSTAR":0.00020233161,"MEAN_MOTION_DOT":3.012e-5,"MEAN_MOTION_DDOT":0}]
